start=new Date('2022-04-23T00:00:00.000Z').valueOf();
sats=[{"RA_OF_ASC_NODE":"344.9954","MEAN_ELEMENT_THEORY":"SGP4","OBJECT_NAME":"STARLINK-2246","MEAN_MOTION":"16.33902926","APOAPSIS":"188.309","OBJECT_ID":"2021-041AP","RCS_SIZE":"LARGE","INCLINATION":"53.0349","PERIOD":"88.133","TLE_LINE1":"1 48590U 21041AP  22113.14915475  .19234180  12141-4  27439-2 0  9997","BSTAR":"0.00274390000000","PERIAPSIS":"175.839","MEAN_MOTION_DOT":"0.19234180","FILE":"3411810","TLE_LINE2":"2 48590  53.0349 344.9954 0009505 250.4994 252.3437 16.33902926 52332","NORAD_CAT_ID":"48590","GP_ID":"201835050","REF_FRAME":"TEME","CLASSIFICATION_TYPE":"U","ARG_OF_PERICENTER":"250.4994","SITE":"AFETR","OBJECT_TYPE":"PAYLOAD","EPHEMERIS_TYPE":"0","COUNTRY_CODE":"US","MEAN_MOTION_DDOT":"0.0000121410000","LAUNCH_DATE":"2021-05-15","ECCENTRICITY":"0.00095050","EPOCH":"2022-04-23T03:34:46.970400","ELEMENT_SET_NO":"999","CENTER_NAME":"EARTH","DECAY_DATE":null,"TIME_SYSTEM":"UTC","SEMIMAJOR_AXIS":"6560.209","REV_AT_EPOCH":"5233","MEAN_ANOMALY":"252.3437"},{"ARG_OF_PERICENTER":"69.0447","EPHEMERIS_TYPE":"0","SITE":"AFETR","OBJECT_TYPE":"PAYLOAD","MEAN_MOTION_DDOT":"0.0000000000000","COUNTRY_CODE":"US","LAUNCH_DATE":"2021-05-15","EPOCH":"2022-04-22T15:59:27.299616","ECCENTRICITY":"0.00016350","REV_AT_EPOCH":"5202","MEAN_ANOMALY":"291.0717","TIME_SYSTEM":"UTC","SEMIMAJOR_AXIS":"6925.326","CENTER_NAME":"EARTH","DECAY_DATE":null,"ELEMENT_SET_NO":"999","OBJECT_ID":"2021-041AQ","OBJECT_NAME":"STARLINK-2248","MEAN_MOTION":"15.06407293","APOAPSIS":"548.323","RA_OF_ASC_NODE":"12.8717","MEAN_ELEMENT_THEORY":"SGP4","TLE_LINE1":"1 48591U 21041AQ  22112.66628819  .00001469  00000-0  11748-3 0  9993","PERIOD":"95.592","RCS_SIZE":"LARGE","INCLINATION":"53.0597","MEAN_MOTION_DOT":"0.00001469","PERIAPSIS":"546.059","BSTAR":"0.00011748000000","CLASSIFICATION_TYPE":"U","REF_FRAME":"TEME","FILE":"3411697","NORAD_CAT_ID":"48591","TLE_LINE2":"2 48591  53.0597  12.8717 0001635  69.0447 291.0717 15.06407293 52022","GP_ID":"201833199"},{"SITE":"AFETR","OBJECT_TYPE":"PAYLOAD","EPHEMERIS_TYPE":"0","ARG_OF_PERICENTER":"75.1626","LAUNCH_DATE":"2021-05-15","MEAN_MOTION_DDOT":"0.0000000000000","COUNTRY_CODE":"US","ECCENTRICITY":"0.00013840","EPOCH":"2022-04-22T11:23:29.055840","DECAY_DATE":null,"CENTER_NAME":"EARTH","ELEMENT_SET_NO":"999","MEAN_ANOMALY":"284.9516","REV_AT_EPOCH":"5145","TIME_SYSTEM":"UTC","SEMIMAJOR_AXIS":"6925.328","APOAPSIS":"548.151","MEAN_MOTION":"15.06406708","OBJECT_NAME":"STARLINK-2249","MEAN_ELEMENT_THEORY":"SGP4","RA_OF_ASC_NODE":"23.7534","OBJECT_ID":"2021-041AR","RCS_SIZE":"LARGE","INCLINATION":"53.0564","TLE_LINE1":"1 48592U 21041AR  22112.47464185  .00002156  00000-0  16355-3 0  9990","PERIOD":"95.592","BSTAR":"0.00016355000000","MEAN_MOTION_DOT":"0.00002156","PERIAPSIS":"546.235","REF_FRAME":"TEME","TLE_LINE2":"2 48592  53.0564  23.7534 0001384  75.1626 284.9516 15.06406708 51457","GP_ID":"201823414","NORAD_CAT_ID":"48592","FILE":"3411458","CLASSIFICATION_TYPE":"U"},{"EPOCH":"2022-04-22T05:11:56.756832","ECCENTRICITY":"0.00016310","TIME_SYSTEM":"UTC","SEMIMAJOR_AXIS":"6925.339","REV_AT_EPOCH":"5171","MEAN_ANOMALY":"286.0558","ELEMENT_SET_NO":"999","CENTER_NAME":"EARTH","DECAY_DATE":null,"ARG_OF_PERICENTER":"74.0611","OBJECT_TYPE":"PAYLOAD","SITE":"AFETR","EPHEMERIS_TYPE":"0","COUNTRY_CODE":"US","MEAN_MOTION_DDOT":"0.0000000000000","LAUNCH_DATE":"2021-05-15","PERIAPSIS":"546.074","MEAN_MOTION_DOT":"0.00003958","BSTAR":"0.00028442000000","CLASSIFICATION_TYPE":"U","FILE":"3411698","TLE_LINE2":"2 48593  53.0543  24.9148 0001631  74.0611 286.0558 15.06403138 51718","GP_ID":"201832709","NORAD_CAT_ID":"48593","REF_FRAME":"TEME","OBJECT_ID":"2021-041AS","RA_OF_ASC_NODE":"24.9148","MEAN_ELEMENT_THEORY":"SGP4","OBJECT_NAME":"STARLINK-2250","MEAN_MOTION":"15.06403138","APOAPSIS":"548.333","PERIOD":"95.592","TLE_LINE1":"1 48593U 21041AS  22112.21662913  .00003958  00000-0  28442-3 0  9993","INCLINATION":"53.0543","RCS_SIZE":"LARGE"},{"PERIOD":"95.592","TLE_LINE1":"1 48594U 21041AT  22112.91667824 -.00056031  00000-0 -37721-2 0  9998","RCS_SIZE":"LARGE","INCLINATION":"53.0555","OBJECT_ID":"2021-041AT","RA_OF_ASC_NODE":"351.7538","MEAN_ELEMENT_THEORY":"SGP4","OBJECT_NAME":"STARLINK-2251","MEAN_MOTION":"15.06403274","APOAPSIS":"548.140","CLASSIFICATION_TYPE":"U","FILE":"3411699","GP_ID":"201832734","TLE_LINE2":"2 48594  53.0555 351.7538 0001352  97.7477 351.0022 15.06403274 52393","NORAD_CAT_ID":"48594","REF_FRAME":"TEME","PERIAPSIS":"546.267","MEAN_MOTION_DOT":"-0.00056031","BSTAR":"-0.00377210000000","MEAN_MOTION_DDOT":"0.0000000000000","COUNTRY_CODE":"US","LAUNCH_DATE":"2021-05-15","ARG_OF_PERICENTER":"97.7477","SITE":"AFETR","OBJECT_TYPE":"PAYLOAD","EPHEMERIS_TYPE":"0","TIME_SYSTEM":"UTC","SEMIMAJOR_AXIS":"6925.339","REV_AT_EPOCH":"5239","MEAN_ANOMALY":"351.0022","ELEMENT_SET_NO":"999","CENTER_NAME":"EARTH","DECAY_DATE":null,"EPOCH":"2022-04-22T22:00:00.999936","ECCENTRICITY":"0.00013520"},{"OBJECT_TYPE":"PAYLOAD","SITE":"AFETR","EPHEMERIS_TYPE":"0","ARG_OF_PERICENTER":"69.8873","LAUNCH_DATE":"2021-05-15","MEAN_MOTION_DDOT":"0.0000000000000","COUNTRY_CODE":"US","ECCENTRICITY":"0.00015100","EPOCH":"2022-04-22T11:07:33.841632","ELEMENT_SET_NO":"999","DECAY_DATE":null,"CENTER_NAME":"EARTH","TIME_SYSTEM":"UTC","SEMIMAJOR_AXIS":"6925.327","MEAN_ANOMALY":"290.2279","REV_AT_EPOCH":"5272","MEAN_ELEMENT_THEORY":"SGP4","RA_OF_ASC_NODE":"23.7984","MEAN_MOTION":"15.06406983","APOAPSIS":"548.238","OBJECT_NAME":"STARLINK-2252","OBJECT_ID":"2021-041AU","INCLINATION":"53.0555","RCS_SIZE":"LARGE","PERIOD":"95.592","TLE_LINE1":"1 48595U 21041AU  22112.46358613  .00003159  00000-0  23081-3 0  9998","BSTAR":"0.00023081000000","PERIAPSIS":"546.146","MEAN_MOTION_DOT":"0.00003159","NORAD_CAT_ID":"48595","TLE_LINE2":"2 48595  53.0555  23.7984 0001510  69.8873 290.2279 15.06406983 52726","GP_ID":"201823664","FILE":"3411458","REF_FRAME":"TEME","CLASSIFICATION_TYPE":"U"},{"ECCENTRICITY":"0.00014360","EPOCH":"2022-04-22T11:39:23.759424","ELEMENT_SET_NO":"999","DECAY_DATE":null,"CENTER_NAME":"EARTH","SEMIMAJOR_AXIS":"6925.308","TIME_SYSTEM":"UTC","MEAN_ANOMALY":"299.5692","REV_AT_EPOCH":"5191","SITE":"AFETR","EPHEMERIS_TYPE":"0","OBJECT_TYPE":"PAYLOAD","ARG_OF_PERICENTER":"60.5440","LAUNCH_DATE":"2021-05-15","MEAN_MOTION_DDOT":"0.0000000000000","COUNTRY_CODE":"US","BSTAR":"0.00017310000000","PERIAPSIS":"546.179","MEAN_MOTION_DOT":"0.00002299","GP_ID":"201823914","TLE_LINE2":"2 48596  53.0556  23.7063 0001436  60.5440 299.5692 15.06413231 51916","NORAD_CAT_ID":"48596","FILE":"3411458","REF_FRAME":"TEME","CLASSIFICATION_TYPE":"U","MEAN_ELEMENT_THEORY":"SGP4","RA_OF_ASC_NODE":"23.7063","MEAN_MOTION":"15.06413231","APOAPSIS":"548.167","OBJECT_NAME":"STARLINK-2253","OBJECT_ID":"2021-041AV","INCLINATION":"53.0556","RCS_SIZE":"LARGE","PERIOD":"95.591","TLE_LINE1":"1 48596U 21041AV  22112.48569166  .00002299  00000-0  17310-3 0  9990"},{"INCLINATION":"53.0545","RCS_SIZE":"LARGE","TLE_LINE1":"1 48597U 21041AW  22112.16134440  .00003366  00000-0  24477-3 0  9997","PERIOD":"95.592","MEAN_MOTION":"15.06402893","APOAPSIS":"548.325","OBJECT_NAME":"STARLINK-2255","MEAN_ELEMENT_THEORY":"SGP4","RA_OF_ASC_NODE":"25.1661","OBJECT_ID":"2021-041AW","REF_FRAME":"TEME","TLE_LINE2":"2 48597  53.0545  25.1661 0001618  75.5342 284.5826 15.06402893 52673","GP_ID":"201824166","NORAD_CAT_ID":"48597","FILE":"3411458","CLASSIFICATION_TYPE":"U","BSTAR":"0.00024477000000","MEAN_MOTION_DOT":"0.00003366","PERIAPSIS":"546.084","LAUNCH_DATE":"2021-05-15","MEAN_MOTION_DDOT":"0.0000000000000","COUNTRY_CODE":"US","SITE":"AFETR","OBJECT_TYPE":"PAYLOAD","EPHEMERIS_TYPE":"0","ARG_OF_PERICENTER":"75.5342","DECAY_DATE":null,"CENTER_NAME":"EARTH","ELEMENT_SET_NO":"999","MEAN_ANOMALY":"284.5826","REV_AT_EPOCH":"5267","TIME_SYSTEM":"UTC","SEMIMAJOR_AXIS":"6925.340","ECCENTRICITY":"0.00016180","EPOCH":"2022-04-22T03:52:20.156160"},{"CLASSIFICATION_TYPE":"U","REF_FRAME":"TEME","TLE_LINE2":"2 48598  53.0554  24.8350 0001540  77.9984 282.1177 15.06399372 51878","NORAD_CAT_ID":"48598","GP_ID":"201824416","FILE":"3411458","MEAN_MOTION_DOT":"0.00001132","PERIAPSIS":"546.149","BSTAR":"0.00009491000000","TLE_LINE1":"1 48598U 21041AX  22112.23137484  .00001132  00000-0  94910-4 0  9996","PERIOD":"95.592","INCLINATION":"53.0554","RCS_SIZE":"LARGE","OBJECT_ID":"2021-041AX","MEAN_MOTION":"15.06399372","APOAPSIS":"548.282","OBJECT_NAME":"STARLINK-2256","MEAN_ELEMENT_THEORY":"SGP4","RA_OF_ASC_NODE":"24.8350","MEAN_ANOMALY":"282.1177","REV_AT_EPOCH":"5187","TIME_SYSTEM":"UTC","SEMIMAJOR_AXIS":"6925.350","DECAY_DATE":null,"CENTER_NAME":"EARTH","ELEMENT_SET_NO":"999","EPOCH":"2022-04-22T05:33:10.786176","ECCENTRICITY":"0.00015400","LAUNCH_DATE":"2021-05-15","MEAN_MOTION_DDOT":"0.0000000000000","COUNTRY_CODE":"US","SITE":"AFETR","OBJECT_TYPE":"PAYLOAD","EPHEMERIS_TYPE":"0","ARG_OF_PERICENTER":"77.9984"},{"CLASSIFICATION_TYPE":"U","REF_FRAME":"TEME","GP_ID":"201823165","TLE_LINE2":"2 48599  53.0570   0.6075 0001391  67.1842 292.9294 15.06402703 53011","NORAD_CAT_ID":"48599","FILE":"3411458","MEAN_MOTION_DOT":"0.00000691","PERIAPSIS":"546.242","BSTAR":"0.00006525500000","TLE_LINE1":"1 48599U 21041AY  22112.05859411  .00000691  00000-0  65255-4 0  9997","PERIOD":"95.592","RCS_SIZE":"LARGE","INCLINATION":"53.0570","OBJECT_ID":"2021-041AY","MEAN_MOTION":"15.06402703","APOAPSIS":"548.169","OBJECT_NAME":"STARLINK-2274","MEAN_ELEMENT_THEORY":"SGP4","RA_OF_ASC_NODE":"0.6075","MEAN_ANOMALY":"292.9294","REV_AT_EPOCH":"5301","TIME_SYSTEM":"UTC","SEMIMAJOR_AXIS":"6925.340","DECAY_DATE":null,"CENTER_NAME":"EARTH","ELEMENT_SET_NO":"999","EPOCH":"2022-04-22T01:24:22.531104","ECCENTRICITY":"0.00013910","LAUNCH_DATE":"2021-05-15","COUNTRY_CODE":"US","MEAN_MOTION_DDOT":"0.0000000000000","SITE":"AFETR","OBJECT_TYPE":"PAYLOAD","EPHEMERIS_TYPE":"0","ARG_OF_PERICENTER":"67.1842"}];
